      2.10          N: GNSS NAV DATA                        RINEX VERSION / TYPE
fic2rin                                 02/25/2024 00:17:43 PGM / RUN BY / DATE
                                                            END OF HEADER
2  24  2 24  1 59 44.0 -.480675138533D-03  .602540239925D-11  .000000000000D+00
     .700000000000D+01  .935937500000D+02  .434125225915D-08 -.584980216648D+00
     .478327274323D-05  .161817088956D-01  .983849167824D-05  .515371114540D+04
     .525584000000D+06 -.253319740295D-06 -.259402308215D+01  .372529029846D-08
     .967786611808D+00  .200812500000D+03 -.123375374398D+01 -.814176770873D-08
     .345371528968D-09  .100000000000D+01  .230200000000D+04  .000000000000D+00
     .240000000000D+01  .000000000000D+00 -.176951289177D-07  .700000000000D+01
     .518400000000D+06  .400000000000D+01
3  24  2 24  1 59 44.0  .212369952351D-03  .237605490838D-10  .000000000000D+00
     .280000000000D+02  .240625000000D+01  .436339603867D-08  .216561836139D+01
    -.298023223877D-07  .512687442824D-02  .155530869961D-05  .515377009392D+04
     .525584000000D+06 -.372529029846D-07 -.146077696700D+01 -.149011611938D-06
     .982648908597D+00  .359093750000D+03  .106514846938D+01 -.820319883902D-08
    -.232152527227D-10  .100000000000D+01  .230200000000D+04  .000000000000D+00
     .240000000000D+01  .000000000000D+00  .186264514923D-08  .280000000000D+02
     .518400000000D+06  .400000000000D+01
8  24  2 24  1 59 44.0  .515300780535D-05  .321733750752D-10  .000000000000D+00
     .100000000000D+02 -.240312500000D+02  .463340728573D-08 -.903055627686D+00
    -.128895044327D-05  .938401324674D-02  .951625406742D-05  .515359079552D+04
     .525584000000D+06  .208616256714D-06  .269369748843D+01 -.391155481339D-07
     .954668969177D+00  .189093750000D+03  .327011492518D+00 -.802890586473D-08
    -.433232331580D-09  .100000000000D+01  .230200000000D+04  .000000000000D+00
     .240000000000D+01  .630000000000D+02  .512227416039D-08  .100000000000D+02
     .518400000000D+06  .400000000000D+01
18 24  2 24  2  0  0.0 -.562163069844D-03 -.807176547823D-11  .000000000000D+00
     .169000000000D+03  .105187500000D+03  .411874299075D-08 -.291748399203D+01
     .551156699657D-05  .385228812229D-02  .934302806854D-05  .515362529564D+04
     .525600000000D+06 -.614672899246D-07 -.249243347325D+01 -.353902578354D-07
     .974701860679D+00  .209125000000D+03 -.302370569988D+01 -.778282418587D-08
     .290012080167D-09  .100000000000D+01  .230200000000D+04  .000000000000D+00
     .240000000000D+01  .000000000000D+00 -.838190317154D-08  .425000000000D+03
     .518400000000D+06  .400000000000D+01
11 24  2 24  2  0  0.0 -.585958361626D-03 -.125055521494D-10  .000000000000D+00
     .200000000000D+03  .117062500000D+03  .432446584565D-08 -.168875320653D+01
     .616535544395D-05  .123570591677D-02  .909902155399D-05  .515367179680D+04
     .525600000000D+06  .335276126862D-07 -.246269754499D+01  .745058059692D-08
     .966335048899D+00  .207875000000D+03 -.246690225096D+01 -.797926093967D-08
     .326442169055D-09  .100000000000D+01  .230200000000D+04  .000000000000D+00
     .240000000000D+01  .000000000000D+00 -.838190317154D-08  .968000000000D+03
     .518400000000D+06  .400000000000D+01
23 24  2 24  2  0  0.0  .162738375366D-03  .829913915368D-11  .000000000000D+00
     .213000000000D+03  .148125000000D+02  .452804575414D-08  .225159143829D+01
     .767409801483D-06  .397923670243D-02  .150874257088D-05  .515370373154D+04
     .525600000000D+06 -.819563865662D-07 -.149190376463D+01  .856816768646D-07
     .977474217713D+00  .360625000000D+03 -.295982096559D+01 -.831570352529D-08
     .103575742917D-10  .100000000000D+01  .230200000000D+04  .000000000000D+00
     .240000000000D+01  .000000000000D+00 -.838190317154D-08  .725000000000D+03
     .518400000000D+06  .400000000000D+01
13 24  2 24  1 59 44.0  .628309790045D-03  .341060513165D-11  .000000000000D+00
     .100000000000D+01 -.109500000000D+03  .402481050666D-08 -.119003513939D+01
    -.567734241486D-05  .781659490895D-02  .101029872894D-04  .515366616631D+04
     .525584000000D+06  .193715095520D-06 -.275411517709D+00  .135973095894D-06
     .971419214412D+00  .189312500000D+03  .935996236000D+00 -.783604068826D-08
    -.320013329840D-09  .100000000000D+01  .230200000000D+04  .000000000000D+00
     .240000000000D+01  .000000000000D+00 -.111758708954D-07  .100000000000D+01
     .519480000000D+06  .400000000000D+01
1  24  2 24  1 59 44.0  .170838087797D-03  .170530256582D-11  .000000000000D+00
     .400000000000D+01  .117687500000D+03  .367693887355D-08  .304867282242D+01
     .586360692978D-05  .127657400444D-01  .932440161705D-05  .515400814629D+04
     .525584000000D+06  .540167093277D-07 -.248943433758D+01 -.163912773132D-06
     .990807566152D+00  .213875000000D+03  .998688725703D+00 -.745281043947D-08
     .304655547269D-09  .100000000000D+01  .230200000000D+04  .000000000000D+00
     .240000000000D+01  .630000000000D+02  .512227416039D-08  .400000000000D+01
     .521280000000D+06  .400000000000D+01
7  24  2 24  1 59 44.0 -.691711902618D-04 -.898126018001D-11  .000000000000D+00
     .000000000000D+00  .194375000000D+02  .446590030839D-08  .254795570113D+01
     .864267349243D-06  .179964171257D-01  .110529363155D-04  .515366914749D+04
     .525584000000D+06  .800937414169D-07  .631835727226D+00 -.225380063057D-06
     .950597085921D+00  .157718750000D+03 -.214861477240D+01 -.765960476757D-08
     .575381109790D-09  .100000000000D+01  .230200000000D+04  .000000000000D+00
     .240000000000D+01  .000000000000D+00 -.111758708954D-07  .000000000000D+00
     .521400000000D+06  .400000000000D+01
25 24  2 24  1 59 44.0  .489493366331D-03  .113686837722D-11  .000000000000D+00
     .100000000000D+02  .612500000000D+01  .517092967569D-08  .173797660655D+01
     .135973095894D-06  .118269067025D-01  .422075390816D-05  .515359961700D+04
     .525584000000D+06 -.219792127609D-06  .166200641050D+01 -.186264514923D-06
     .950524604182D+00  .293281250000D+03  .107777152866D+01 -.846035240764D-08
     .118219210019D-09  .100000000000D+01  .230200000000D+04  .000000000000D+00
     .240000000000D+01  .000000000000D+00  .558793544769D-08  .100000000000D+02
     .521400000000D+06  .400000000000D+01
11 24  2 24  3 14 40.0 -.586014240980D-03 -.125055521494D-10  .000000000000D+00
     .201000000000D+03  .118437500000D+03  .434910972931D-08 -.103544050333D+01
     .615417957306D-05  .123573269229D-02  .906176865101D-05  .515367149925D+04
     .530080000000D+06  .260770320892D-07 -.246273328115D+01  .149011611938D-07
     .966336494262D+00  .208500000000D+03 -.246676900546D+01 -.798247535928D-08
     .327156484524D-09  .100000000000D+01  .230200000000D+04  .000000000000D+00
     .240000000000D+01  .000000000000D+00 -.838190317154D-08  .969000000000D+03
     .522900000000D+06  .400000000000D+01
1  24  2 24  3 59 44.0  .170850194991D-03  .170530256582D-11  .000000000000D+00
     .500000000000D+01  .108531250000D+03  .374872757812D-08 -.218457711554D+01
     .543333590031D-05  .127676250413D-01  .870972871780D-05  .515400461197D+04
     .532784000000D+06  .156462192535D-06 -.248948859283D+01 -.782310962677D-07
     .990810083834D+00  .225656250000D+03  .998725861878D+00 -.748316884688D-08
     .391802034413D-09  .100000000000D+01  .230200000000D+04  .000000000000D+00
     .240000000000D+01  .630000000000D+02  .512227416039D-08  .500000000000D+01
     .525600000000D+06  .400000000000D+01
7  24  2 24  3 59 44.0 -.692354515195D-04 -.898126018001D-11  .000000000000D+00
     .260000000000D+02  .250625000000D+02  .441589822560D-08 -.268507437779D+01
     .105798244476D-05  .179959477391D-01  .107549130917D-04  .515367004967D+04
     .532784000000D+06  .119209289551D-06  .631780746375D+00 -.137835741043D-06
     .950601261090D+00  .163250000000D+03 -.214858779180D+01 -.763853246125D-08
     .588595945955D-09  .100000000000D+01  .230200000000D+04  .000000000000D+00
     .240000000000D+01  .000000000000D+00 -.111758708954D-07  .260000000000D+02
     .525600000000D+06  .400000000000D+01
25 24  2 24  3 59 44.0  .489501282573D-03  .113686837722D-11  .000000000000D+00
     .130000000000D+02  .650000000000D+01  .505056751927D-08  .278818149795D+01
     .253319740295D-06  .118267282378D-01  .394135713577D-05  .515360025215D+04
     .532784000000D+06  .540167093277D-07  .166194682730D+01 -.109896063805D-06
     .950526557178D+00  .295937500000D+03  .107779656797D+01 -.819962726167D-08
     .978612191697D-10  .100000000000D+01  .230200000000D+04  .000000000000D+00
     .240000000000D+01  .000000000000D+00  .558793544769D-08  .130000000000D+02
     .525600000000D+06  .400000000000D+01
